    PK21N020  2021 11 13.2612  3.796597  0.452387  177.3389  221.7424   13.0628  20220109   9.5  4.0  P/2021 N2 (Fuls)                                         MPEC 2022-A21
    CK21N030  2020 08 19.0400  5.707633  0.964615  304.6187  337.4942   26.7505  20220109   8.5  4.0  C/2021 N3 (PANSTARRS)                                    MPEC 2021-W31
    CK21O010  2021 08 13.9313  0.786859  0.999735   74.4549   41.6063   27.5752  20220109  10.5  4.0  C/2021 O1 (Nishimura)                                    MPEC 2022-A21
    CK21O030  2022 04 21.0468  0.287323  1.000121  299.9895  189.0204   56.7878  20220109  10.5  4.0  C/2021 O3 (PANSTARRS)                                    MPEC 2022-A21
    CK21P010  2022 06  1.9264  4.374409  0.999347   40.3929  359.6738   51.6305  20220109  11.0  4.0  C/2021 P1 (PANSTARRS)                                    MPEC 2021-W31
    CK21P020  2023 01 21.8291  5.071241  0.998454   76.5096   32.0020  150.0261  20220109   9.0  4.0  C/2021 P2 (PANSTARRS)                                    MPEC 2021-W31
    PK21P030  2021 05 30.7679  2.915988  0.339918  334.1790  358.2387   27.1607  20220109  14.0  4.0  P/2021 P3 (PANSTARRS)                                    MPEC 2021-W31
    CK21P040  2022 07 30.3827  1.080470  0.996544  175.8227  348.0961   56.3115  20220109   9.5  4.0  C/2021 P4 (ATLAS)                                        MPEC 2022-A21
    CK21Q030  2022 01 26.0278  5.204769  0.930328  114.0843  307.9025   77.7771  20220109   8.0  4.0  C/2021 Q3 (ATLAS)                                        MPEC 2021-Y10
    CK21Q040  2023 06  9.1734  7.566725  1.003346  146.9097  183.3325   71.4737  20220109   6.0  4.0  C/2021 Q4 (Fuls)                                         MPEC 2021-UA9
    PK21Q050  2021 08 30.4340  1.234539  0.624283  180.8963  239.7732   10.7341  20220109  15.0  4.0  P/2021 Q5 (ATLAS)                                        MPEC 2021-WD8
    CK21Q060  2024 03 21.6931  8.714237  0.998980  140.8241  133.5396  161.8470  20220109   6.0  4.0  C/2021 Q6 (PANSTARRS)                                    MPEC 2021-Y10
    PK21R010  2021 12 17.6013  4.885771  0.419544  220.3163  143.4082    5.5213  20220109  11.0  4.0  P/2021 R1 (PANSTARRS)                                    MPEC 2021-W31
    CK21R020  2021 12 25.6100  7.311057  0.996276   32.3372   16.2796  134.4646  20220109   7.5  4.0  C/2021 R2 (PANSTARRS)                                    MPEC 2021-W31
    PK21R030  2021 05 26.8376  2.524931  0.331661    2.9402  304.2379   19.9281  20220109  16.0  4.0  P/2021 R3 (PANSTARRS)                                    MPEC 2021-W31
    PK21R040  2021 10 13.9345  2.326010  0.585967   56.6304  321.2559   21.0400  20220109  16.0  4.0  P/2021 R4 (Wierzchos)                                    MPEC 2021-W31
    PK21R050  2022 01 12.0480  3.322742  0.307177  167.3501  219.9601    7.8535  20220109  12.0  4.0  P/2021 R5 (Rankin)                                       MPEC 2022-A21
    PK21R060  2021 10 31.8838  2.552137  0.593156  220.7274  176.1151   34.9269  20220109  14.5  4.0  P/2021 R6 (Groeller)                                     MPEC 2021-W31
    CK21R070  2021 04 14.9163  5.641405  0.995533  140.0377  170.1438  158.8557  20220109  10.5  4.0  C/2021 R7 (PANSTARRS)                                    MPEC 2021-W31
    PK21R080  2021 10  7.4733  2.130968  0.293764  190.7777  167.0279    2.2033  20220109  18.5  4.0  P/2021 R8 (Sheppard)                                     MPEC 2021-Y10
    CK21S010  2022 03  1.1968  6.118818  1.000762  148.2138  299.8712   52.0913  20220109   7.0  4.0  C/2021 S1 (ATLAS)                                        MPEC 2022-A21
    CK21S030  2024 02 14.8633  1.318372  0.999660    6.9159  215.6483   58.5463  20220109   5.5  4.0  C/2021 S3 (PANSTARRS)                                    MPEC 2022-A21
    CK21S040  2024 01  1.0824  6.691538  0.958988   72.7549    5.4988   17.4814  20220109   6.5  4.0  C/2021 S4 (Tsuchinshan)                                  MPEC 2022-A21
    CK21T010  2021 10 14.0907  3.057781  0.996981   51.5043   56.8139  140.3488  20220109  12.5  4.0  C/2021 T1 (Lemmon)                                       MPEC 2021-Y10
    CK21T020  2022 06  7.8972  1.247617  1.000128  263.5968  223.2317  117.5258  20220109  12.0  4.0  C/2021 T2 (Fuls)                                         MPEC 2022-A21
    CK21T040  2023 07 31.5457  1.482032  0.999836  329.7816  257.7973  160.7564  20220109   7.5  4.0  C/2021 T4 (Lemmon)                                       MPEC 2022-A21
    PK21U010  2021 09 30.9841  2.445011  0.712747  145.0473  246.7895   30.5605  20220109  14.5  4.0  P/2021 U1 (Wierzchos)                                    MPEC 2022-A21
    PK21U030  2021 10 24.8679  1.886871  0.550018  335.2139   75.1128   69.9654  20220109  15.5  4.0  P/2021 U3 (Attard-Maury)                                 MPEC 2022-A21
    CK21U040  2021 12 21.9439  1.787429  0.960171  237.2793  241.8042  152.8776  20220109  17.0  4.0  C/2021 U4 (Leonard)                                      MPEC 2021-W31
    CK21U050  2022 01 26.4100  2.365455  0.992479  321.3625  182.8051   39.0438  20220109  13.0  4.0  C/2021 U5 (Catalina)                                     MPEC 2022-A21
    CK21V010  2022 04 30.3731  3.013470  0.995445  195.1064  207.6526   71.4429  20220109  13.0  4.0  C/2021 V1 (Rankin)                                       MPEC 2021-Y10
    PK21V020  2023 01 21.5830  3.497013  0.612923  259.8312  232.2924   12.6955  20220109  10.0  4.0  P/2021 V2 (Fuls)                                         MPEC 2022-A21
    PK21V030  2022 08 18.3717  3.400283  0.254050  206.7006  245.8689    3.6897  20220109  13.0  4.0  P/2021 V3 (PANSTARRS)                                    MPEC 2021-Y10
    AK21X010  2023 05 27.4757  3.226234  0.999070  334.7928   10.6202  140.1328  20220109  11.5  2.0  A/2021 X1                                                MPEC 2022-A21
    AK21X020  2022 07  8.0592  2.995122  1.001789  193.2535  228.7931  137.1469  20220109  16.0  2.0  A/2021 X2                                                MPEC 2022-A21
    CK21Y010  2023 04 30.8839  2.033620  1.000536  245.8024  244.7516   77.2075  20220109   7.0  4.0  C/2021 Y1 (ATLAS)                                        MPEC 2022-A50
    CK22A010  2022 01 31.1006  1.253113  1.001812  201.1542  285.5207  116.5459  20220109  19.0  4.0  C/2022 A1 (Sarneczky)                                    MPEC 2022-A59
0001P         1986 02 13.0002  0.602370  0.966296  111.8737   58.9444  162.2277  20220109   4.0  6.0  1P/Halley                                                 98, 1083
0002P         2020 06 28.4220  0.333358  0.849745  186.7170  334.4993   11.7512  20220109  11.5  6.0  2P/Encke                                                 MPEC 2021-TD0
0004P         2021 09  8.8426  1.618900  0.576647  207.0038  192.9307    8.0083  20220109   8.0  6.0  4P/Faye                                                  MPEC 2022-A21
0006P         2021 09 17.7633  1.354550  0.612743  178.0900  138.9350   19.5122  20220109   7.5 16.0  6P/d'Arrest                                              MPEC 2022-A21
0007P         2021 05 27.0981  1.233920  0.638498  172.5865   93.3613   22.3624  20220109  10.0  6.0  7P/Pons-Winnecke                                         MPEC 2021-Y10
0008P         2021 08 27.7358  1.025995  0.820223  207.4883  270.2018   54.9112  20220109   8.0  8.0  8P/Tuttle                                                MPEC 2021-Y10
0009P         2022 03  4.9487  1.544233  0.509155  179.3488   68.7142   10.4700  20220109   5.5 10.0  9P/Tempel                                                MPEC 2022-A21
0010P         2021 03 24.2457  1.412608  0.538476  195.4988  117.8095   12.0393  20220109   5.0 10.0  10P/Tempel                                               MPEC 2022-A21
0011P         2020 11 26.3063  1.388447  0.577182  167.9635  238.8971   14.4217  20220109  17.0  4.0  11P/Tempel-Swift-LINEAR                                  MPEC 2021-UA9
0012P         2024 04 20.6555  0.781732  0.954427  198.9898  255.7923   74.1499  20220109   5.0  6.0  12P/Pons-Brooks                                           27,  604
0013P         2024 07  1.2300  1.175061  0.929828   64.4146   85.9309   44.6190  20220109   5.0  6.0  13P/Olbers                                                27,  604
0014P         2017 12  3.3092  2.737790  0.357096  159.0421  202.0465   27.9187  20220109   5.5 12.0  14P/Wolf                                                 MPEC 2021-F20
0015P         2021 07 13.4778  0.992088  0.717048  347.8335   13.7124    6.7977  20220109  12.0  4.0  15P/Finlay                                               MPEC 2022-A21
0016P         2021 04 18.2973  1.878352  0.486344  245.1967  138.8704    3.0117  20220109   7.5 10.0  16P/Brooks                                               MPEC 2022-A21
0017P         2021 02 19.8759  2.081071  0.427632   24.4944  326.6214   19.0320  20220109  10.0  6.0  17P/Holmes                                               MPEC 2022-A21
0019P         2022 02  1.8272  1.306268  0.637643  351.9183   74.2471   29.3047  20220109   4.5 10.0  19P/Borrelly                                             MPEC 2022-A21
0021P         2025 03 25.1557  1.009835  0.711109  172.8674  195.3457   32.0470  20220109  11.4  4.0  21P/Giacobini-Zinner                                     MPEC 2021-F20
0022P         2022 03 18.1278  1.552416  0.548745  163.0191  120.8337    4.7420  20220109   3.0 10.4  22P/Kopff                                                MPEC 2021-S45
0023P         1989 08  5.0788  0.481485  0.971590  128.8732  312.3388   19.1538  20220109  10.0  6.0  23P/Brorsen-Metcalf                                      MPC 14747
0024P         2026 01  9.7030  1.183692  0.707997   58.3358   78.4950   11.5198  20220109   6.5 14.0  24P/Schaumasse                                           MPC110085
